{"type": "FeatureCollection", "features": [ {"type": "Feature", "properties": {"norad_id": 34376, "name": "IRIDIUM 33 DEB", "group": "iridium-33-debris", "lat": 39.20472091592984, "lon": 177.12849826940518, "alt_km": 662.4128491661832, "timestamp": "2025-12-26T22:28:06.170051+00:00", "meta": {"OBJECT_NAME": "IRIDIUM 33 DEB", "OBJECT_ID": "1997-051FU", "EPOCH": "2025-12-26T10:20:12.761664", "MEAN_MOTION": 14.62756045, "ECCENTRICITY": 0.0028627, "INCLINATION": 86.2983, "RA_OF_ASC_NODE": 0.3829, "ARG_OF_PERICENTER": 122.009, "MEAN_ANOMALY": 238.3909, "EPHEMERIS_TYPE": 0, "CLASSIFICATION_TYPE": "U", "NORAD_CAT_ID": 34376, "ELEMENT_SET_NO": 999, "REV_AT_EPOCH": 88207, "BSTAR": 0.0014942, "MEAN_MOTION_DOT": 7.684e-05, "MEAN_MOTION_DDOT": 0}, "tle": {"line1": "1 34376U 97051FU  25360.43070326  .00007684  00000+0  14942-2 0  9992", "line2": "2 34376  86.2983   0.3829 0028627 122.0090 238.3909 14.62756045882071"}}, "geometry": {"type": "Point", "coordinates": [177.12849826940518, 39.20472091592984]}}, {"type": "Feature", "properties": {"norad_id": 34486, "name": "IRIDIUM 33 DEB", "group": "iridium-33-debris", "lat": -82.9109427124816, "lon": -144.0570996264702, "alt_km": 594.7931025284579, "timestamp": "2025-12-26T22:28:06.170061+00:00", "meta": {"OBJECT_NAME": "IRIDIUM 33 DEB", "OBJECT_ID": "1997-051GB", "EPOCH": "2025-12-26T00:39:56.499264", "MEAN_MOTION": 14.96400313, "ECCENTRICITY": 0.00139183, "INCLINATION": 86.3935, "RA_OF_ASC_NODE": 5.8877, "ARG_OF_PERICENTER": 74.4824, "MEAN_ANOMALY": 338.8012, "EPHEMERIS_TYPE": 0, "CLASSIFICATION_TYPE": "U", "NORAD_CAT_ID": 34486, "ELEMENT_SET_NO": 999, "REV_AT_EPOCH": 89185, "BSTAR": 0.0021412617, "MEAN_MOTION_DOT": 0.00024383, "MEAN_MOTION_DDOT": 0}, "tle": {"line1": "1 34486U 97051GB  25360.02773726  .00024383  00000+0  21413-2 0  9999", "line2": "2 34486  86.3935   5.8877 0013918  74.4824 338.8012 14.96400313891854"}}, "geometry": {"type": "Point", "coordinates": [-144.0570996264702, -82.9109427124816]}}, {"type": "Feature", "properties": {"norad_id": 34487, "name": "IRIDIUM 33 DEB", "group": "iridium-33-debris", "lat": 78.77973889530581, "lon": 167.45591000618768, "alt_km": 717.8518265359708, "timestamp": "2025-12-26T22:28:06.170072+00:00", "meta": {"OBJECT_NAME": "IRIDIUM 33 DEB", "OBJECT_ID": "1997-051GC", "EPOCH": "2025-12-26T00:37:21.163296", "MEAN_MOTION": 14.43232747, "ECCENTRICITY": 0.00332617, "INCLINATION": 86.3429, "RA_OF_ASC_NODE": 6.6563, "ARG_OF_PERICENTER": 87.1121, "MEAN_ANOMALY": 327.0907, "EPHEMERIS_TYPE": 0, "CLASSIFICATION_TYPE": "U", "NORAD_CAT_ID": 34487, "ELEMENT_SET_NO": 999, "REV_AT_EPOCH": 88440, "BSTAR": 0.00018559814, "MEAN_MOTION_DOT": 6.49e-06, "MEAN_MOTION_DDOT": 0}, "tle": {"line1": "1 34487U 97051GC  25360.02593939  .00000649  00000+0  18560-3 0  9995", "line2": "2 34487  86.3429   6.6563 0033261  87.1121 327.0907 14.43232747884400"}}, "geometry": {"type": "Point", "coordinates": [167.45591000618768, 78.77973889530581]}}, {"type": "Feature", "properties": {"norad_id": 34488, "name": "IRIDIUM 33 DEB", "group": "iridium-33-debris", "lat": -56.81858548552921, "lon": 124.40470424736479, "alt_km": 478.65315843822646, "timestamp": "2025-12-26T22:28:06.170082+00:00", "meta": {"OBJECT_NAME": "IRIDIUM 33 DEB", "OBJECT_ID": "1997-051GD", "EPOCH": "2025-12-25T20:22:16.973184", "MEAN_MOTION": 15.32823177, "ECCENTRICITY": 0.00085439, "INCLINATION": 86.325, "RA_OF_ASC_NODE": 299.3053, "ARG_OF_PERICENTER": 30.257, "MEAN_ANOMALY": 329.9171, "EPHEMERIS_TYPE": 0, "CLASSIFICATION_TYPE": "U", "NORAD_CAT_ID": 34488, "ELEMENT_SET_NO": 999, "REV_AT_EPOCH": 89440, "BSTAR": 0.0046585997, "MEAN_MOTION_DOT": 0.00150449, "MEAN_MOTION_DDOT": 0}, "tle": {"line1": "1 34488U 97051GD  25359.84880756  .00150449  00000+0  46586-2 0  9992", "line2": "2 34488  86.3250 299.3053 0008543  30.2570 329.9171 15.32823177894407"}}, "geometry": {"type": "Point", "coordinates": [124.40470424736479, -56.81858548552921]}}, {"type": "Feature", "properties": {"norad_id": 34492, "name": "IRIDIUM 33 DEB", "group": "iridium-33-debris", "lat": 23.08314177396918, "lon": -29.604056773610544, "alt_km": 937.8763882094399, "timestamp": "2025-12-26T22:28:06.170093+00:00", "meta": {"OBJECT_NAME": "IRIDIUM 33 DEB", "OBJECT_ID": "1997-051GH", "EPOCH": "2025-12-26T16:26:49.984800", "MEAN_MOTION": 14.25962973, "ECCENTRICITY": 0.0188844, "INCLINATION": 86.4728, "RA_OF_ASC_NODE": 328.991, "ARG_OF_PERICENTER": 192.8428, "MEAN_ANOMALY": 343.7311, "EPHEMERIS_TYPE": 0, "CLASSIFICATION_TYPE": "U", "NORAD_CAT_ID": 34492, "ELEMENT_SET_NO": 999, "REV_AT_EPOCH": 85257, "BSTAR": 0.0027705, "MEAN_MOTION_DOT": 7.99e-05, "MEAN_MOTION_DDOT": 0}, "tle": {"line1": "1 34492U 97051GH  25360.68530075  .00007990  00000+0  27705-2 0  9991", "line2": "2 34492  86.4728 328.9910 0188844 192.8428 343.7311 14.25962973852575"}}, "geometry": {"type": "Point", "coordinates": [-29.604056773610544, 23.08314177396918]}}, {"type": "Feature", "properties": {"norad_id": 34497, "name": "IRIDIUM 33 DEB", "group": "iridium-33-debris", "lat": -14.550641651664174, "lon": 45.36822334757929, "alt_km": 770.292998968217, "timestamp": "2025-12-26T22:28:06.170104+00:00", "meta": {"OBJECT_NAME": "IRIDIUM 33 DEB", "OBJECT_ID": "1997-051GN", "EPOCH": "2025-12-22T21:33:03.136608", "MEAN_MOTION": 14.27482363, "ECCENTRICITY": 0.00780484, "INCLINATION": 86.2769, "RA_OF_ASC_NODE": 48.0617, "ARG_OF_PERICENTER": 306.2683, "MEAN_ANOMALY": 179.2919, "EPHEMERIS_TYPE": 0, "CLASSIFICATION_TYPE": "U", "NORAD_CAT_ID": 34497, "ELEMENT_SET_NO": 999, "REV_AT_EPOCH": 87028, "BSTAR": 0.00056228088, "MEAN_MOTION_DOT": 1.443e-05, "MEAN_MOTION_DDOT": 0}, "tle": {"line1": "1 34497U 97051GN  25356.89795297  .00001443  00000+0  56228-3 0  9993", "line2": "2 34497  86.2769  48.0617 0078048 306.2683 179.2919 14.27482363870281"}}, "geometry": {"type": "Point", "coordinates": [45.36822334757929, -14.550641651664174]}}, {"type": "Feature", "properties": {"norad_id": 34508, "name": "IRIDIUM 33 DEB", "group": "iridium-33-debris", "lat": -16.045167207179038, "lon": 95.5781655572933, "alt_km": 806.3599742446477, "timestamp": "2025-12-26T22:28:06.170115+00:00", "meta": {"OBJECT_NAME": "IRIDIUM 33 DEB", "OBJECT_ID": "1997-051GZ", "EPOCH": "2025-12-26T07:31:07.370400", "MEAN_MOTION": 14.38527608, "ECCENTRICITY": 0.0066681, "INCLINATION": 86.3698, "RA_OF_ASC_NODE": 96.8885, "ARG_OF_PERICENTER": 129.474, "MEAN_ANOMALY": 231.2383, "EPHEMERIS_TYPE": 0, "CLASSIFICATION_TYPE": "U", "NORAD_CAT_ID": 34508, "ELEMENT_SET_NO": 999, "REV_AT_EPOCH": 87504, "BSTAR": 0.0012081, "MEAN_MOTION_DOT": 3.808e-05, "MEAN_MOTION_DDOT": 0}, "tle": {"line1": "1 34508U 97051GZ  25360.31327975  .00003808  00000+0  12081-2 0  9997", "line2": "2 34508  86.3698  96.8885 0066681 129.4740 231.2383 14.38527608875040"}}, "geometry": {"type": "Point", "coordinates": [95.5781655572933, -16.045167207179038]}}, {"type": "Feature", "properties": {"norad_id": 34521, "name": "IRIDIUM 33 DEB", "group": "iridium-33-debris", "lat": -4.926082018085235, "lon": 23.98347997837994, "alt_km": 687.9452720714653, "timestamp": "2025-12-26T22:28:06.170125+00:00", "meta": {"OBJECT_NAME": "IRIDIUM 33 DEB", "OBJECT_ID": "1997-051HN", "EPOCH": "2025-12-26T12:38:41.834976", "MEAN_MOTION": 14.63480775, "ECCENTRICITY": 0.0003338, "INCLINATION": 86.379, "RA_OF_ASC_NODE": 24.4764, "ARG_OF_PERICENTER": 162.7334, "MEAN_ANOMALY": 197.3992, "EPHEMERIS_TYPE": 0, "CLASSIFICATION_TYPE": "U", "NORAD_CAT_ID": 34521, "ELEMENT_SET_NO": 999, "REV_AT_EPOCH": 88674, "BSTAR": 0.00091376, "MEAN_MOTION_DOT": 4.754e-05, "MEAN_MOTION_DDOT": 0}, "tle": {"line1": "1 34521U 97051HN  25360.52687309  .00004754  00000+0  91376-3 0  9991", "line2": "2 34521  86.3790  24.4764 0003338 162.7334 197.3992 14.63480775886748"}}, "geometry": {"type": "Point", "coordinates": [23.98347997837994, -4.926082018085235]}}, {"type": "Feature", "properties": {"norad_id": 34525, "name": "IRIDIUM 33 DEB", "group": "iridium-33-debris", "lat": -28.07137029283112, "lon": -137.27725274045977, "alt_km": 758.3503435077837, "timestamp": "2025-12-26T22:28:06.170158+00:00", "meta": {"OBJECT_NAME": "IRIDIUM 33 DEB", "OBJECT_ID": "1997-051HS", "EPOCH": "2025-12-26T13:53:42.987264", "MEAN_MOTION": 14.42937761, "ECCENTRICITY": 0.0006147, "INCLINATION": 86.3717, "RA_OF_ASC_NODE": 40.936, "ARG_OF_PERICENTER": 62.9394, "MEAN_ANOMALY": 90.6558, "EPHEMERIS_TYPE": 0, "CLASSIFICATION_TYPE": "U", "NORAD_CAT_ID": 34525, "ELEMENT_SET_NO": 999, "REV_AT_EPOCH": 88287, "BSTAR": 0.00035937, "MEAN_MOTION_DOT": 1.221e-05, "MEAN_MOTION_DDOT": 0}, "tle": {"line1": "1 34525U 97051HS  25360.57896976  .00001221  00000+0  35937-3 0  9999", "line2": "2 34525  86.3717  40.9360 0006147  62.9394  90.6558 14.42937761882876"}}, "geometry": {"type": "Point", "coordinates": [-137.27725274045977, -28.07137029283112]}}, {"type": "Feature", "properties": {"norad_id": 34529, "name": "IRIDIUM 33 DEB", "group": "iridium-33-debris", "lat": -14.74916073663835, "lon": 28.39937230686873, "alt_km": 765.1542221363388, "timestamp": "2025-12-26T22:28:06.170170+00:00", "meta": {"OBJECT_NAME": "IRIDIUM 33 DEB", "OBJECT_ID": "1997-051HW", "EPOCH": "2025-12-26T14:12:06.788736", "MEAN_MOTION": 14.40627159, "ECCENTRICITY": 0.0006309, "INCLINATION": 86.3628, "RA_OF_ASC_NODE": 29.5057, "ARG_OF_PERICENTER": 138.1705, "MEAN_ANOMALY": 221.9977, "EPHEMERIS_TYPE": 0, "CLASSIFICATION_TYPE": "U", "NORAD_CAT_ID": 34529, "ELEMENT_SET_NO": 999, "REV_AT_EPOCH": 88341, "BSTAR": 0.00013424, "MEAN_MOTION_DOT": 4.48e-06, "MEAN_MOTION_DDOT": 0}, "tle": {"line1": "1 34529U 97051HW  25360.59174524  .00000448  00000+0  13424-3 0  9990", "line2": "2 34529  86.3628  29.5057 0006309 138.1705 221.9977 14.40627159883419"}}, "geometry": {"type": "Point", "coordinates": [28.39937230686873, -14.74916073663835]}}]}